{
    "links": {
        "self": "http://www.neowsapp.com/rest/v1/neo/54091634?api_key=iIulBulltgU6a56xZRHN4H3l9WmuAYTsLGpBGhQ2"
    },
    "id": "54091634",
    "neo_reference_id": "54091634",
    "name": "(2020 WQ1)",
    "designation": "2020 WQ1",
    "nasa_jpl_url": "http://ssd.jpl.nasa.gov/sbdb.cgi?sstr=54091634",
    "absolute_magnitude_h": 22.916,
    "estimated_diameter": {
        "kilometers": {
            "estimated_diameter_min": 0.0693992819,
            "estimated_diameter_max": 0.1551815119
        },
        "meters": {
            "estimated_diameter_min": 69.3992818895,
            "estimated_diameter_max": 155.1815118945
        },
        "miles": {
            "estimated_diameter_min": 0.0431227012,
            "estimated_diameter_max": 0.0964252912
        },
        "feet": {
            "estimated_diameter_min": 227.6879399942,
            "estimated_diameter_max": 509.1257114839
        }
    },
    "is_potentially_hazardous_asteroid": false,
    "close_approach_data": [
        {
            "close_approach_date": "1905-04-08",
            "close_approach_date_full": "1905-Apr-08 13:44",
            "epoch_date_close_approach": -2042792160000,
            "relative_velocity": {
                "kilometers_per_second": "24.4650762012",
                "kilometers_per_hour": "88074.274324262",
                "miles_per_hour": "54725.9289544283"
            },
            "miss_distance": {
                "astronomical": "0.4721566303",
                "lunar": "183.6689291867",
                "kilometers": "70633626.199257461",
                "miles": "43889700.1277805218"
            },
            "orbiting_body": "Earth"
        },
        {
            "close_approach_date": "1914-07-23",
            "close_approach_date_full": "1914-Jul-23 18:14",
            "epoch_date_close_approach": -1749620760000,
            "relative_velocity": {
                "kilometers_per_second": "4.259675095",
                "kilometers_per_hour": "15334.8303419221",
                "miles_per_hour": "9528.4672199571"
            },
            "miss_distance": {
                "astronomical": "1.3197498763",
                "lunar": "513.3827018807",
                "kilometers": "197431770.427243481",
                "miles": "122678413.4698667978"
            },
            "orbiting_body": "Juptr"
        },
        {
            "close_approach_date": "1974-02-19",
            "close_approach_date_full": "1974-Feb-19 10:42",
            "epoch_date_close_approach": 130502520000,
            "relative_velocity": {
                "kilometers_per_second": "6.283716161",
                "kilometers_per_hour": "22621.3781797232",
                "miles_per_hour": "14056.0446806174"
            },
            "miss_distance": {
                "astronomical": "1.8403077771",
                "lunar": "715.8797252919",
                "kilometers": "275306123.598594777",
                "miles": "171067292.7083988426"
            },
            "orbiting_body": "Juptr"
        },
        {
            "close_approach_date": "1985-08-08",
            "close_approach_date_full": "1985-Aug-08 09:13",
            "epoch_date_close_approach": 492340380000,
            "relative_velocity": {
                "kilometers_per_second": "3.9099918373",
                "kilometers_per_hour": "14075.9706142228",
                "miles_per_hour": "8746.2607408208"
            },
            "miss_distance": {
                "astronomical": "1.2358988728",
                "lunar": "480.7646615192",
                "kilometers": "184887838.906280936",
                "miles": "114883975.8556154768"
            },
            "orbiting_body": "Juptr"
        },
        {
            "close_approach_date": "2020-12-20",
            "close_approach_date_full": "2020-Dec-20 21:53",
            "epoch_date_close_approach": 1608501180000,
            "relative_velocity": {
                "kilometers_per_second": "12.4508397517",
                "kilometers_per_hour": "44823.02310608",
                "miles_per_hour": "27851.2834405529"
            },
            "miss_distance": {
                "astronomical": "0.1022644832",
                "lunar": "39.7808839648",
                "kilometers": "15298548.863370784",
                "miles": "9506077.4610294592"
            },
            "orbiting_body": "Earth"
        }
    ],
    "orbital_data": {
        "orbit_id": "9",
        "orbit_determination_date": "2020-12-07 05:26:55",
        "first_observation_date": "2020-11-14",
        "last_observation_date": "2020-12-07",
        "data_arc_in_days": 23,
        "observations_used": 47,
        "orbit_uncertainty": "8",
        "minimum_orbit_intersection": ".016689",
        "jupiter_tisserand_invariant": "3.232",
        "epoch_osculation": "2459173.5",
        "eccentricity": ".6145925182887502",
        "semi_major_axis": "2.406643526357597",
        "inclination": "4.484532750864366",
        "ascending_node_longitude": "178.1439396768463",
        "orbital_period": "1363.691323939277",
        "perihelion_distance": ".9275384208701634",
        "perihelion_argument": "312.8557966965833",
        "aphelion_distance": "3.88574863184503",
        "perihelion_time": "2459233.371419583901",
        "mean_anomaly": "344.1945822549179",
        "mean_motion": ".2639893601141882",
        "equinox": "J2000",
        "orbit_class": {
            "orbit_class_type": "APO",
            "orbit_class_description": "Near-Earth asteroid orbits which cross the Earth’s orbit similar to that of 1862 Apollo",
            "orbit_class_range": "a (semi-major axis) > 1.0 AU; q (perihelion) < 1.017 AU"
        }
    },
    "is_sentry_object": false
}